{
  "type": "FeatureCollection",
  "features": [
    {
      "type": "Feature",
      "properties": {
        "norad_id": 27954,
        "name": "GALAXY 13 (HORIZONS-1)",
        "group": "intelsat",
        "lat": 0.7229680002666161,
        "lon": -146.00431507200474,
        "alt_km": 35779.41327853882,
        "timestamp": "2025-12-10T18:56:59.729448+00:00",
        "meta_object_name": "GALAXY 13 (HORIZONS-1)",
        "meta_object_id": "2003-044A",
        "meta_epoch": "2025-12-10T11:00:23.834880",
        "meta_mean_motion": 1.00270524,
        "meta_eccentricity": 0.0002029,
        "meta_inclination": 0.9296,
        "meta_ra_of_asc_node": 86.5003,
        "meta_arg_of_pericenter": 164.0767,
        "meta_mean_anomaly": 203.9566,
        "meta_ephemeris_type": 0,
        "meta_classification_type": "U",
        "meta_norad_cat_id": 27954,
        "meta_element_set_no": 999,
        "meta_rev_at_epoch": 4468,
        "meta_bstar": 0,
        "meta_mean_motion_dot": 1.37e-06,
        "meta_mean_motion_ddot": 0,
        "tle_line1": "1 27954U 03044A   25344.45860920  .00000137  00000+0  00000+0 0  9999",
        "tle_line2": "2 27954   0.9296  86.5003 0002029 164.0767 203.9566  1.00270524 44685"
      },
      "geometry": {
        "type": "Point",
        "coordinates": [
          -146.00431507200474,
          0.7229680002666161
        ]
      }
    },
    {
      "type": "Feature",
      "properties": {
        "norad_id": 28358,
        "name": "INTELSAT 10-02",
        "group": "intelsat",
        "lat": -0.016903831445738367,
        "lon": 3.117465440677439,
        "alt_km": 35785.7552960419,
        "timestamp": "2025-12-10T18:56:59.729459+00:00",
        "meta_object_name": "INTELSAT 10-02",
        "meta_object_id": "2004-022A",
        "meta_epoch": "2025-12-09T23:46:38.709984",
        "meta_mean_motion": 1.00289796,
        "meta_eccentricity": 0.00023988,
        "meta_inclination": 0.028,
        "meta_ra_of_asc_node": 69.1558,
        "meta_arg_of_pericenter": 175.9009,
        "meta_mean_anomaly": 189.6126,
        "meta_ephemeris_type": 0,
        "meta_classification_type": "U",
        "meta_norad_cat_id": 28358,
        "meta_element_set_no": 999,
        "meta_rev_at_epoch": 7865,
        "meta_bstar": 0,
        "meta_mean_motion_dot": -4e-08,
        "meta_mean_motion_ddot": 0,
        "tle_line1": "1 28358U 04022A   25343.99072581 -.00000004  00000+0  00000+0 0  9995",
        "tle_line2": "2 28358   0.0280  69.1558 0002398 175.9009 189.6126  1.00289796 78656"
      },
      "geometry": {
        "type": "Point",
        "coordinates": [
          3.117465440677439,
          -0.016903831445738367
        ]
      }
    },
    {
      "type": "Feature",
      "properties": {
        "norad_id": 28626,
        "name": "XM-3 (RHYTHM)",
        "group": "intelsat",
        "lat": 0.1326874905908831,
        "lon": 127.59978907341026,
        "alt_km": 36164.44159259702,
        "timestamp": "2025-12-10T18:56:59.729471+00:00",
        "meta_object_name": "XM-3 (RHYTHM)",
        "meta_object_id": "2005-008A",
        "meta_epoch": "2025-12-10T05:30:38.805120",
        "meta_mean_motion": 0.9895347,
        "meta_eccentricity": 0.0001418,
        "meta_inclination": 0.1684,
        "meta_ra_of_asc_node": 81.2752,
        "meta_arg_of_pericenter": 266.0581,
        "meta_mean_anomaly": 300.7784,
        "meta_ephemeris_type": 0,
        "meta_classification_type": "U",
        "meta_norad_cat_id": 28626,
        "meta_element_set_no": 999,
        "meta_rev_at_epoch": 4072,
        "meta_bstar": 0,
        "meta_mean_motion_dot": -2.23e-06,
        "meta_mean_motion_ddot": 0,
        "tle_line1": "1 28626U 05008A   25344.22961580 -.00000223  00000+0  00000+0 0  9994",
        "tle_line2": "2 28626   0.1684  81.2752 0001418 266.0581 300.7784  0.98953470 40729"
      },
      "geometry": {
        "type": "Point",
        "coordinates": [
          127.59978907341026,
          0.1326874905908831
        ]
      }
    },
    {
      "type": "Feature",
      "properties": {
        "norad_id": 28659,
        "name": "DIRECTV 8",
        "group": "intelsat",
        "lat": -0.02341480749832465,
        "lon": -115.04816316077554,
        "alt_km": 35773.36254758346,
        "timestamp": "2025-12-10T18:56:59.729482+00:00",
        "meta_object_name": "DIRECTV 8",
        "meta_object_id": "2005-019A",
        "meta_epoch": "2025-12-10T07:31:28.465824",
        "meta_mean_motion": 1.00272201,
        "meta_eccentricity": 0.0003149,
        "meta_inclination": 0.0136,
        "meta_ra_of_asc_node": 25.1148,
        "meta_arg_of_pericenter": 239.1282,
        "meta_mean_anomaly": 168.8738,
        "meta_ephemeris_type": 0,
        "meta_classification_type": "U",
        "meta_norad_cat_id": 28659,
        "meta_element_set_no": 999,
        "meta_rev_at_epoch": 7517,
        "meta_bstar": 0,
        "meta_mean_motion_dot": 5e-08,
        "meta_mean_motion_ddot": 0,
        "tle_line1": "1 28659U 05019A   25344.31352391  .00000005  00000+0  00000+0 0  9993",
        "tle_line2": "2 28659   0.0136  25.1148 0003149 239.1282 168.8738  1.00272201 75173"
      },
      "geometry": {
        "type": "Point",
        "coordinates": [
          -115.04816316077554,
          -0.02341480749832465
        ]
      }
    },
    {
      "type": "Feature",
      "properties": {
        "norad_id": 28702,
        "name": "GALAXY 28 (G-28)",
        "group": "intelsat",
        "lat": -0.6997283752303262,
        "lon": -84.68622063527724,
        "alt_km": 35775.31275226436,
        "timestamp": "2025-12-10T18:56:59.729494+00:00",
        "meta_object_name": "GALAXY 28 (G-28)",
        "meta_object_id": "2005-022A",
        "meta_epoch": "2025-12-10T05:31:38.713152",
        "meta_mean_motion": 1.00270969,
        "meta_eccentricity": 0.0002699,
        "meta_inclination": 2.8122,
        "meta_ra_of_asc_node": 81.3111,
        "meta_arg_of_pericenter": 180.857,
        "meta_mean_anomaly": 171.2672,
        "meta_ephemeris_type": 0,
        "meta_classification_type": "U",
        "meta_norad_cat_id": 28702,
        "meta_element_set_no": 999,
        "meta_rev_at_epoch": 5007,
        "meta_bstar": 0,
        "meta_mean_motion_dot": -1.84e-06,
        "meta_mean_motion_ddot": 0,
        "tle_line1": "1 28702U 05022A   25344.23030918 -.00000184  00000+0  00000+0 0  9994",
        "tle_line2": "2 28702   2.8122  81.3111 0002699 180.8570 171.2672  1.00270969 50078"
      },
      "geometry": {
        "type": "Point",
        "coordinates": [
          -84.68622063527724,
          -0.6997283752303262
        ]
      }
    },
    {
      "type": "Feature",
      "properties": {
        "norad_id": 29236,
        "name": "GALAXY 16 (G-16)",
        "group": "intelsat",
        "lat": -0.011379148628710567,
        "lon": -94.9972222006479,
        "alt_km": 35774.446993668294,
        "timestamp": "2025-12-10T18:56:59.729505+00:00",
        "meta_object_name": "GALAXY 16 (G-16)",
        "meta_object_id": "2006-023A",
        "meta_epoch": "2025-12-10T10:30:13.309920",
        "meta_mean_motion": 1.00272213,
        "meta_eccentricity": 0.0002769,
        "meta_inclination": 0.0363,
        "meta_ra_of_asc_node": 149.7861,
        "meta_arg_of_pericenter": 104.7073,
        "meta_mean_anomaly": 243.4661,
        "meta_ephemeris_type": 0,
        "meta_classification_type": "U",
        "meta_norad_cat_id": 29236,
        "meta_element_set_no": 999,
        "meta_rev_at_epoch": 7108,
        "meta_bstar": 0,
        "meta_mean_motion_dot": -1.23e-06,
        "meta_mean_motion_ddot": 0,
        "tle_line1": "1 29236U 06023A   25344.43765405 -.00000123  00000+0  00000+0 0  9990",
        "tle_line2": "2 29236   0.0363 149.7861 0002769 104.7073 243.4661  1.00272213 71088"
      },
      "geometry": {
        "type": "Point",
        "coordinates": [
          -94.9972222006479,
          -0.011379148628710567
        ]
      }
    },
    {
      "type": "Feature",
      "properties": {
        "norad_id": 29494,
        "name": "DIRECTV 9S",
        "group": "intelsat",
        "lat": -0.0043181556903492775,
        "lon": -97.20471097382745,
        "alt_km": 35772.92410380773,
        "timestamp": "2025-12-10T18:56:59.729517+00:00",
        "meta_object_name": "DIRECTV 9S",
        "meta_object_id": "2006-043A",
        "meta_epoch": "2025-12-10T07:31:02.481888",
        "meta_mean_motion": 1.00271543,
        "meta_eccentricity": 0.0003127,
        "meta_inclination": 1.9341,
        "meta_ra_of_asc_node": 83.2342,
        "meta_arg_of_pericenter": 178.8823,
        "meta_mean_anomaly": 188.7211,
        "meta_ephemeris_type": 0,
        "meta_classification_type": "U",
        "meta_norad_cat_id": 29494,
        "meta_element_set_no": 999,
        "meta_rev_at_epoch": 4949,
        "meta_bstar": 0,
        "meta_mean_motion_dot": -1.1e-06,
        "meta_mean_motion_ddot": 0,
        "tle_line1": "1 29494U 06043A   25344.31322317 -.00000110  00000+0  00000+0 0  9992",
        "tle_line2": "2 29494   1.9341  83.2342 0003127 178.8823 188.7211  1.00271543 49497"
      },
      "geometry": {
        "type": "Point",
        "coordinates": [
          -97.20471097382745,
          -0.0043181556903492775
        ]
      }
    }
  ]
}